NORAD_CAT_ID,OBJECT_NAME,OBJECT_TYPE,EPOCH,MEAN_MOTION,ECCENTRICITY,INCLINATION,RA_OF_ASC_NODE,ARG_OF_PERICENTER,MEAN_ANOMALY,BSTAR,MEAN_MOTION_DOT,MEAN_MOTION_DDOT,TLE_LINE0,TLE_LINE1,TLE_LINE2,SEMIMAJOR_AXIS,PERIOD,APOGEE,PERIGEE,DECAYED
52377.0,STARLINK-3805,PAYLOAD,2023-04-17 10:38:06,15.08848615,0.0001057,53.2152,255.5005,93.4129,266.6984,0.00083122,0.00012969,0.0,0 STARLINK-3805,1 52377U 22045AY  23107.44312692  .00012969  00000-0  83122-3 0  9997,2 52377  53.2152 255.5005 0001057  93.4129 266.6984 15.08848615 56308,6917.854,95.437,540.45,538.988,0.0
52377.0,STARLINK-3805,PAYLOAD,2023-04-17 13:48:52,15.0884394,0.0001142,53.2153,254.9057,94.8368,265.2755,0.0010852,0.00017027,0.0,0 STARLINK-3805,1 52377U 22045AY  23107.57560828  .00017027  00000-0  10852-2 0  9996,2 52377  53.2153 254.9057 0001142  94.8368 265.2755 15.08843940 56323,6917.868,95.437,540.523,538.943,0.0
52377.0,STARLINK-3805,PAYLOAD,2023-04-17 20:10:25,15.08853989,0.0001259,53.2152,253.7166,91.8,268.3136,0.0015353,0.0002424,0.0,0 STARLINK-3805,1 52377U 22045AY  23107.84056737  .00024240  00000-0  15353-2 0  9991,2 52377  53.2152 253.7166 0001259  91.8000 268.3136 15.08853989 56364,6917.838,95.437,540.574,538.832,0.0
52377.0,STARLINK-3805,PAYLOAD,2023-04-18 02:31:58,15.08836192,0.0002187,53.2151,252.527,92.3839,267.7404,0.00078273,0.0001219,0.0,0 STARLINK-3805,1 52377U 22045AY  23108.10553443  .00012190  00000-0  78273-3 0  9999,2 52377  53.2151 252.5270 0002187  92.3839 267.7404 15.08836192 56406,6917.892,95.438,541.27,538.244,0.0
52377.0,STARLINK-3805,PAYLOAD,2023-04-18 13:39:39,15.08840594,0.0001531,53.215,250.4454,97.8693,262.2473,0.0010048,0.0001574,0.0,0 STARLINK-3805,1 52377U 22045AY  23108.56921260  .00015740  00000-0  10048-2 0  9994,2 52377  53.2150 250.4454 0001531  97.8693 262.2473 15.08840594 56470,6917.879,95.438,540.803,538.684,0.0
52377.0,STARLINK-3805,PAYLOAD,2023-04-18 18:25:49,15.08846613,0.0001689,53.2159,249.5509,89.1926,270.926,0.00067148,0.00010417,0.0,0 STARLINK-3805,1 52377U 22045AY  23108.76793213  .00010417  00000-0  67148-3 0  9991,2 52377  53.2159 249.5509 0001689  89.1926 270.9260 15.08846613 56508,6917.86,95.437,540.894,538.557,0.0
52377.0,STARLINK-3805,PAYLOAD,2023-04-19 08:44:17,15.08844515,0.0001235,53.2155,246.8763,88.4689,271.6445,0.00063627,9.854e-05,0.0,0 STARLINK-3805,1 52377U 22045AY  23109.36409285  .00009854  00000-0  63627-3 0  9992,2 52377  53.2155 246.8763 0001235  88.4689 271.6445 15.08844515 56592,6917.867,95.437,540.586,538.877,0.0
52377.0,STARLINK-3805,PAYLOAD,2023-04-19 10:19:40,15.08840448,0.0001519,53.2144,246.5779,95.01,265.1065,0.00074839,0.00011643,0.0,0 STARLINK-3805,1 52377U 22045AY  23109.43033296  .00011643  00000-0  74839-3 0  9991,2 52377  53.2144 246.5779 0001519  95.0100 265.1065 15.08840448 56600,6917.879,95.438,540.795,538.693,0.0
52377.0,STARLINK-3805,PAYLOAD,2023-04-19 16:41:13,15.08853105,0.0001248,53.2156,245.39,79.6852,280.4281,0.0016938,0.00026781,0.0,0 STARLINK-3805,1 52377U 22045AY  23109.69529250  .00026781  00000-0  16938-2 0  9993,2 52377  53.2156 245.3900 0001248  79.6852 280.4281 15.08853105 56645,6917.84,95.437,540.569,538.842,0.0
52377.0,STARLINK-3805,PAYLOAD,2023-04-20 02:13:32,15.08847343,0.000172,53.2157,243.6078,59.815,300.3012,0.00090243,0.00014106,0.0,0 STARLINK-3805,1 52377U 22045AY  23110.09273480  .00014106  00000-0  90243-3 0  9990,2 52377  53.2157 243.6078 0001720  59.8150 300.3012 15.08847343 56707,6917.858,95.437,540.913,538.533,0.0
52377.0,STARLINK-3805,PAYLOAD,2023-04-20 11:45:51,15.08843199,0.0001774,53.2154,241.8235,64.0351,296.0824,0.00036301,5.494e-05,0.0,0 STARLINK-3805,1 52377U 22045AY  23110.49017504  .00005494  00000-0  36301-3 0  9992,2 52377  53.2154 241.8235 0001774  64.0351 296.0824 15.08843199 56762,6917.871,95.437,540.963,538.508,0.0
52377.0,STARLINK-3805,PAYLOAD,2023-04-20 13:21:14,15.08843358,0.0001652,53.2154,241.5259,65.8002,294.3163,0.0003203,4.814e-05,0.0,0 STARLINK-3805,1 52377U 22045AY  23110.55641483  .00004814  00000-0  32030-3 0  9998,2 52377  53.2154 241.5259 0001652  65.8002 294.3163 15.08843358 56777,6917.87,95.437,540.878,538.592,0.0
52377.0,STARLINK-3805,PAYLOAD,2023-04-20 18:07:23,15.08851286,0.0001598,53.2161,240.6335,69.1504,290.9659,0.00052055,8.009e-05,0.0,0 STARLINK-3805,1 52377U 22045AY  23110.75513224  .00008009  00000-0  52055-3 0  9990,2 52377  53.2161 240.6335 0001598  69.1504 290.9659 15.08851286 56808,6917.846,95.437,540.816,538.605,0.0
52377.0,STARLINK-3805,PAYLOAD,2023-04-21 02:04:19,15.08847261,0.0001275,53.2157,239.147,61.9361,298.176,0.00036348,5.503e-05,0.0,0 STARLINK-3805,1 52377U 22045AY  23111.08633197  .00005503  00000-0  36348-3 0  9992,2 52377  53.2157 239.1470 0001275  61.9361 298.1760 15.08847261 56855,6917.858,95.437,540.605,538.841,0.0
52377.0,STARLINK-3805,PAYLOAD,2023-04-21 19:33:33,15.08849106,0.0001466,53.2144,235.8725,80.0421,280.0736,0.00034167,5.155e-05,0.0,0 STARLINK-3805,1 52377U 22045AY  23111.81497239  .00005155  00000-0  34167-3 0  9998,2 52377  53.2144 235.8725 0001466  80.0421 280.0736 15.08849106 56963,6917.853,95.437,540.732,538.703,0.0
52377.0,STARLINK-3805,PAYLOAD,2023-04-22 01:55:05,15.08855925,0.0001317,53.216,234.684,70.3179,289.7955,0.00045537,6.97e-05,0.0,0 STARLINK-3805,1 52377U 22045AY  23112.07992881  .00006970  00000-0  45537-3 0  9999,2 52377  53.2160 234.6840 0001317  70.3179 289.7955 15.08855925 57004,6917.832,95.437,540.608,538.786,0.0
52377.0,STARLINK-3805,PAYLOAD,2023-04-22 19:24:20,15.08859431,0.0001085,53.2158,231.415,69.0932,291.0176,0.00040184,6.117e-05,0.0,0 STARLINK-3805,1 52377U 22045AY  23112.80856586  .00006117  00000-0  40184-3 0  9997,2 52377  53.2158 231.4150 0001085  69.0932 291.0176 15.08859431 57113,6917.821,95.436,540.437,538.935,0.0
52377.0,STARLINK-3805,PAYLOAD,2023-04-23 17:39:45,15.08826262,0.0001215,53.2162,227.2485,101.4667,258.6461,-0.00013466,-2.429e-05,0.0,0 STARLINK-3805,1 52377U 22045AY  23113.73594338 -.00002429  00000-0 -13466-3 0  9991,2 52377  53.2162 227.2485 0001215 101.4667 258.6461 15.08826262 57250,6917.922,95.438,540.628,538.947,0.0
52377.0,STARLINK-3805,PAYLOAD,2023-04-23 19:15:07,15.0883223,0.000149,53.2164,226.952,195.399,164.6957,-8.7048e-05,-1.673e-05,0.0,0 STARLINK-3805,1 52377U 22045AY  23113.80217334 -.00001673  00000-0 -87048-4 0  9995,2 52377  53.2164 226.9520 0001490 195.3990 164.6957 15.08832230 57263,6917.904,95.438,540.8,538.738,0.0
52377.0,STARLINK-3805,PAYLOAD,2023-04-25 10:59:47,15.08788778,0.0001118,53.216,219.5189,122.4506,237.6595,-0.00084496,-0.00013691,0.0,0 STARLINK-3805,1 52377U 22045AY  23115.45818540 -.00013691  00000-0 -84496-3 0  9990,2 52377  53.2160 219.5189 0001118 122.4506 237.6595 15.08788778 57513,6918.037,95.441,540.675,539.129,0.0
52377.0,STARLINK-3805,PAYLOAD,2023-04-26 12:25:58,15.08854667,0.000105,53.2139,214.7625,149.0779,211.0276,0.0018181,0.00028777,0.0,0 STARLINK-3805,1 52377U 22045AY  23116.51804191  .00028777  00000-0  18181-2 0  9991,2 52377  53.2139 214.7625 0001050 149.0779 211.0276 15.08854667 57673,6917.836,95.437,540.427,538.974,0.0
52377.0,STARLINK-3805,PAYLOAD,2023-04-27 12:16:43,15.08880044,4.78e-05,53.2152,210.3061,154.6353,205.4663,0.00088735,0.00013878,0.0,0 STARLINK-3805,1 52377U 22045AY  23117.51161814  .00013878  00000-0  88735-3 0  9999,2 52377  53.2152 210.3061 0000478 154.6353 205.4663 15.08880044 57829,6917.758,95.435,539.954,539.292,0.0
52377.0,STARLINK-3805,PAYLOAD,2023-04-27 23:24:25,15.08868315,7.99e-05,53.2152,208.2205,145.4976,214.6068,0.0014557,0.00022973,0.0,0 STARLINK-3805,1 52377U 22045AY  23117.97529682  .00022973  00000-0  14557-2 0  9996,2 52377  53.2152 208.2205 0000799 145.4976 214.6068 15.08868315 57895,6917.794,95.436,540.212,539.106,0.0
52377.0,STARLINK-3805,PAYLOAD,2023-04-28 05:45:58,15.08854171,0.000147,53.2122,207.0311,110.873,249.242,0.0019045,0.00030164,0.0,0 STARLINK-3805,1 52377U 22045AY  23118.24026109  .00030164  00000-0  19045-2 0  9991,2 52377  53.2122 207.0311 0001470 110.8730 249.2420 15.08854171 57934,6917.837,95.437,540.719,538.685,0.0
52377.0,STARLINK-3805,PAYLOAD,2023-04-28 12:07:30,15.08850828,8.62e-05,53.2138,205.842,132.4527,227.6538,0.0004449,6.802e-05,0.0,0 STARLINK-3805,1 52377U 22045AY  23118.50521796  .00006802  00000-0  44490-3 0  9997,2 52377  53.2138 205.8420 0000862 132.4527 227.6538 15.08850828 57975,6917.847,95.437,540.309,539.116,0.0
52377.0,STARLINK-3805,PAYLOAD,2023-04-28 23:15:12,15.08841255,6.7e-05,53.2156,203.7599,138.2429,221.8615,0.00044984,6.879e-05,0.0,0 STARLINK-3805,1 52377U 22045AY  23118.96889865  .00006879  00000-0  44984-3 0  9993,2 52377  53.2156 203.7599 0000670 138.2429 221.8615 15.08841255 58046,6917.877,95.437,540.205,539.278,0.0
52377.0,STARLINK-3805,PAYLOAD,2023-04-29 11:58:17,15.08849117,9.45e-05,53.2156,201.3797,129.5032,230.6044,0.00048739,7.479e-05,0.0,0 STARLINK-3805,1 52377U 22045AY  23119.49881718  .00007479  00000-0  48739-3 0  9990,2 52377  53.2156 201.3797 0000945 129.5032 230.6044 15.08849117 58126,6917.853,95.437,540.371,539.064,0.0
52377.0,STARLINK-3805,PAYLOAD,2023-04-30 11:49:05,15.08844661,8.59e-05,53.2161,196.9201,119.7728,240.335,0.00046334,7.095e-05,0.0,0 STARLINK-3805,1 52377U 22045AY  23120.49241935  .00007095  00000-0  46334-3 0  9996,2 52377  53.2161 196.9201 0000859 119.7728 240.3350 15.08844661 58271,6917.866,95.437,540.325,539.137,0.0
52377.0,STARLINK-3805,PAYLOAD,2023-04-30 14:59:51,15.08847097,8.51e-05,53.2159,196.3251,119.1263,240.9814,0.00055692,8.588e-05,0.0,0 STARLINK-3805,1 52377U 22045AY  23120.62489927  .00008588  00000-0  55692-3 0  9991,2 52377  53.2159 196.3251 0000851 119.1263 240.9814 15.08847097 58296,6917.859,95.437,540.312,539.135,0.0
52377.0,STARLINK-3805,PAYLOAD,2023-05-01 11:39:52,15.08834108,0.0001211,53.2171,192.46,134.4091,225.7001,0.00047038,7.205e-05,0.0,0 STARLINK-3805,1 52377U 22045AY  23121.48602460  .00007205  00000-0  47038-3 0  9995,2 52377  53.2171 192.4600 0001211 134.4091 225.7001 15.08834108 58428,6917.898,95.438,540.601,538.926,0.0
